STARLINK-31629          
1 59255U 24050B   26068.59575197  .00000509  00000+0  29326-4 0  9996
2 59255  53.1601 181.4675 0001154  93.6915 266.4217 15.30181219110539
HERMES-3                
1 63835U 25052BR  26068.93751242  .00020316  00000+0  69958-3 0  9995
2 63835  97.3987 324.6131 0007993 112.9583 247.2502 15.30039785 54863
